{
  "type": "FeatureCollection",
  "features": [
    {
      "type": "Feature",
      "properties": {
        "norad_id": 66871,
        "name": "STARLINK-36095",
        "group": "last-30-days",
        "lat": 17.74334015004625,
        "lon": 81.57344505733079,
        "alt_km": 369.97777394816785,
        "timestamp": "2025-12-22T16:55:16.168232+00:00",
        "meta_object_name": "STARLINK-36095",
        "meta_object_id": "2025-281Z",
        "meta_epoch": "2025-12-22T06:00:02.000160",
        "meta_mean_motion": 15.67246741,
        "meta_eccentricity": 0.00013459,
        "meta_inclination": 43.0002,
        "meta_ra_of_asc_node": 64.216,
        "meta_arg_of_pericenter": 271.1632,
        "meta_mean_anomaly": 66.671,
        "meta_ephemeris_type": 0,
        "meta_classification_type": "U",
        "meta_norad_cat_id": 66871,
        "meta_element_set_no": 999,
        "meta_rev_at_epoch": 295,
        "meta_bstar": -0.020367213,
        "meta_mean_motion_dot": -0.01985297,
        "meta_mean_motion_ddot": 0,
        "tle_line1": "1 66871U 25281Z   25356.25002315 -.01985297  00000+0 -20367-1 0  9996",
        "tle_line2": "2 66871  43.0002  64.2160 0001345 271.1632  66.6710 15.67246741  2958"
      },
      "geometry": {
        "type": "Point",
        "coordinates": [
          81.57344505733079,
          17.74334015004625
        ]
      }
    },
    {
      "type": "Feature",
      "properties": {
        "norad_id": 66872,
        "name": "STARLINK-36082",
        "group": "last-30-days",
        "lat": 18.96534354620806,
        "lon": 83.12625836394841,
        "alt_km": 369.85121134921246,
        "timestamp": "2025-12-22T16:55:16.168248+00:00",
        "meta_object_name": "STARLINK-36082",
        "meta_object_id": "2025-281AA",
        "meta_epoch": "2025-12-22T06:00:02.000160",
        "meta_mean_motion": 15.67249005,
        "meta_eccentricity": 0.00013214,
        "meta_inclination": 43.0003,
        "meta_ra_of_asc_node": 64.2109,
        "meta_arg_of_pericenter": 270.2701,
        "meta_mean_anomaly": 69.4845,
        "meta_ephemeris_type": 0,
        "meta_classification_type": "U",
        "meta_norad_cat_id": 66872,
        "meta_element_set_no": 999,
        "meta_rev_at_epoch": 282,
        "meta_bstar": -0.020451311,
        "meta_mean_motion_dot": -0.01992651,
        "meta_mean_motion_ddot": 0,
        "tle_line1": "1 66872U 25281AA  25356.25002315 -.01992651  00000+0 -20451-1 0  9993",
        "tle_line2": "2 66872  43.0003  64.2109 0001321 270.2701  69.4845 15.67249005  2826"
      },
      "geometry": {
        "type": "Point",
        "coordinates": [
          83.12625836394841,
          18.96534354620806
        ]
      }
    },
    {
      "type": "Feature",
      "properties": {
        "norad_id": 66873,
        "name": "STARLINK-36128",
        "group": "last-30-days",
        "lat": 22.548207217202823,
        "lon": 87.92973966648556,
        "alt_km": 369.39566055839623,
        "timestamp": "2025-12-22T16:55:16.168258+00:00",
        "meta_object_name": "STARLINK-36128",
        "meta_object_id": "2025-281AB",
        "meta_epoch": "2025-12-22T06:00:02.000160",
        "meta_mean_motion": 15.67254072,
        "meta_eccentricity": 0.00013286,
        "meta_inclination": 43.0008,
        "meta_ra_of_asc_node": 64.196,
        "meta_arg_of_pericenter": 270.4521,
        "meta_mean_anomaly": 75.0536,
        "meta_ephemeris_type": 0,
        "meta_classification_type": "U",
        "meta_norad_cat_id": 66873,
        "meta_element_set_no": 999,
        "meta_rev_at_epoch": 295,
        "meta_bstar": -0.020546933,
        "meta_mean_motion_dot": -0.02001211,
        "meta_mean_motion_ddot": 0,
        "tle_line1": "1 66873U 25281AB  25356.25002315 -.02001211  00000+0 -20547-1 0  9994",
        "tle_line2": "2 66873  43.0008  64.1960 0001328 270.4521  75.0536 15.67254072  2959"
      },
      "geometry": {
        "type": "Point",
        "coordinates": [
          87.92973966648556,
          22.548207217202823
        ]
      }
    },
    {
      "type": "Feature",
      "properties": {
        "norad_id": 66874,
        "name": "STARLINK-36129",
        "group": "last-30-days",
        "lat": 20.17484322710857,
        "lon": 84.70279472580653,
        "alt_km": 369.7197471700474,
        "timestamp": "2025-12-22T16:55:16.168268+00:00",
        "meta_object_name": "STARLINK-36129",
        "meta_object_id": "2025-281AC",
        "meta_epoch": "2025-12-22T06:00:02.000160",
        "meta_mean_motion": 15.67251008,
        "meta_eccentricity": 0.00013416,
        "meta_inclination": 43.0005,
        "meta_ra_of_asc_node": 64.2058,
        "meta_arg_of_pericenter": 269.9997,
        "meta_mean_anomaly": 71.6747,
        "meta_ephemeris_type": 0,
        "meta_classification_type": "U",
        "meta_norad_cat_id": 66874,
        "meta_element_set_no": 999,
        "meta_rev_at_epoch": 295,
        "meta_bstar": -0.020515949,
        "meta_mean_motion_dot": -0.01998347,
        "meta_mean_motion_ddot": 0,
        "tle_line1": "1 66874U 25281AC  25356.25002315 -.01998347  00000+0 -20516-1 0  9995",
        "tle_line2": "2 66874  43.0005  64.2058 0001341 269.9997  71.6747 15.67251008  2953"
      },
      "geometry": {
        "type": "Point",
        "coordinates": [
          84.70279472580653,
          20.17484322710857
        ]
      }
    },
    {
      "type": "Feature",
      "properties": {
        "norad_id": 66875,
        "name": "STARLINK-36053",
        "group": "last-30-days",
        "lat": 23.71020714046717,
        "lon": 89.58350228490718,
        "alt_km": 369.1953596781432,
        "timestamp": "2025-12-22T16:55:16.168280+00:00",
        "meta_object_name": "STARLINK-36053",
        "meta_object_id": "2025-281AD",
        "meta_epoch": "2025-12-22T06:00:02.000160",
        "meta_mean_motion": 15.6724882,
        "meta_eccentricity": 0.00013123,
        "meta_inclination": 43.0006,
        "meta_ra_of_asc_node": 64.1903,
        "meta_arg_of_pericenter": 271.8167,
        "meta_mean_anomaly": 75.6063,
        "meta_ephemeris_type": 0,
        "meta_classification_type": "U",
        "meta_norad_cat_id": 66875,
        "meta_element_set_no": 999,
        "meta_rev_at_epoch": 295,
        "meta_bstar": -0.020451378,
        "meta_mean_motion_dot": -0.01992636,
        "meta_mean_motion_ddot": 0,
        "tle_line1": "1 66875U 25281AD  25356.25002315 -.01992636  00000+0 -20451-1 0  9999",
        "tle_line2": "2 66875  43.0006  64.1903 0001312 271.8167  75.6063 15.67248820  2955"
      },
      "geometry": {
        "type": "Point",
        "coordinates": [
          89.58350228490718,
          23.71020714046717
        ]
      }
    },
    {
      "type": "Feature",
      "properties": {
        "norad_id": 66876,
        "name": "STARLINK-35702",
        "group": "last-30-days",
        "lat": 21.368905051666378,
        "lon": 86.30287364364284,
        "alt_km": 369.50274449185963,
        "timestamp": "2025-12-22T16:55:16.168290+00:00",
        "meta_object_name": "STARLINK-35702",
        "meta_object_id": "2025-281AE",
        "meta_epoch": "2025-12-22T06:00:02.000160",
        "meta_mean_motion": 15.67251349,
        "meta_eccentricity": 0.00013449,
        "meta_inclination": 43.0005,
        "meta_ra_of_asc_node": 64.201,
        "meta_arg_of_pericenter": 272.2894,
        "meta_mean_anomaly": 71.2973,
        "meta_ephemeris_type": 0,
        "meta_classification_type": "U",
        "meta_norad_cat_id": 66876,
        "meta_element_set_no": 999,
        "meta_rev_at_epoch": 295,
        "meta_bstar": -0.020476645,
        "meta_mean_motion_dot": -0.01995008,
        "meta_mean_motion_ddot": 0,
        "tle_line1": "1 66876U 25281AE  25356.25002315 -.01995008  00000+0 -20477-1 0  9994",
        "tle_line2": "2 66876  43.0005  64.2010 0001344 272.2894  71.2973 15.67251349  2954"
      },
      "geometry": {
        "type": "Point",
        "coordinates": [
          86.30287364364284,
          21.368905051666378
        ]
      }
    },
    {
      "type": "Feature",
      "properties": {
        "norad_id": 66877,
        "name": "ZQ-3 R/B",
        "group": "last-30-days",
        "lat": 39.03691053134334,
        "lon": 167.06774047295713,
        "alt_km": 730.0001979900653,
        "timestamp": "2025-12-22T16:55:16.168300+00:00",
        "meta_object_name": "ZQ-3 R/B",
        "meta_object_id": "2025-282A",
        "meta_epoch": "2025-12-22T06:32:00.857760",
        "meta_mean_motion": 14.78845817,
        "meta_eccentricity": 0.06990257,
        "meta_inclination": 56.9486,
        "meta_ra_of_asc_node": 20.6424,
        "meta_arg_of_pericenter": 236.7311,
        "meta_mean_anomaly": 116.4873,
        "meta_ephemeris_type": 0,
        "meta_classification_type": "U",
        "meta_norad_cat_id": 66877,
        "meta_element_set_no": 999,
        "meta_rev_at_epoch": 279,
        "meta_bstar": 0.00019233159,
        "meta_mean_motion_dot": 0.01095592,
        "meta_mean_motion_ddot": 7.816011e-06,
        "tle_line1": "1 66877U 25282A   25356.27223215  .01095592  78160-5  19233-3 0  9997",
        "tle_line2": "2 66877  56.9486  20.6424 0699025 236.7311 116.4873 14.78845817  2797"
      },
      "geometry": {
        "type": "Point",
        "coordinates": [
          167.06774047295713,
          39.03691053134334
        ]
      }
    }
  ]
}